WNISAT-1                
1 39423U 13066H   26115.84920728  .00000677  00000+0  13122-3 0  9993
2 39423  97.7133 268.7418 0164008  37.2017 324.0414 14.57998402659106
TRITON-1                
1 39427U 13066M   26115.82009120  .00003381  00000+0  40835-3 0  9995
2 39427  97.8267  26.8220 0091555  45.6986 315.1689 14.81443802666331
GOMX-1                  
1 39430U 13066Q   26115.81771683  .00001373  00000+0  21358-3 0  9996
2 39430  97.6529 319.5780 0127550 245.5389 113.2470 14.69258291662221
CUBEBUG-2 (LO-74)       
1 39440U 13066AA  26115.80650799  .00003736  00000+0  35043-3 0  9991
2 39440  97.8871  64.5922 0057328 199.5050 160.3976 14.93386841669172
NEE-02 KRYSAOR          
1 39441U 13066AB  26115.77236895  .00001541  00000+0  17450-3 0  9999
2 39441  97.8866  55.3782 0064892 241.0668 118.4030 14.86426759668417
FUNCUBE-1 (AO-73)       
1 39444U 13066AE  26115.80844813  .00010811  00000+0  68138-3 0  9990
2 39444  97.8237  86.2005 0037585  24.7149 335.5869 15.08732699671764
UWE-3                   
1 39446U 13066AG  26115.80487762  .00003635  00000+0  31656-3 0  9999
2 39446  97.8653  71.5585 0050421 133.2329 227.3118 14.96583512669742
BRITE-CA1 (TORONTO)     
1 40020U 14033L   26115.58353226  .00000897  00000+0  14187-3 0  9993
2 40020  97.9656 245.5081 0080064  85.5228 275.5121 14.72595446634477
DUCHIFAT-1              
1 40021U 14033M   26115.67407459  .00065753  00000+0  94543-3 0  9998
2 40021  98.0542 167.8552 0004049 235.8806 124.2063 15.55855059647564
NANOSATC-BR1            
1 40024U 14033Q   26115.57806583  .00016189  00000+0  56375-3 0  9991
2 40024  98.0779 143.3656 0003806  37.3997 322.7506 15.29765088645938
QB50P1                  
1 40025U 14033R   26115.74003683  .00008784  00000+0  44240-3 0  9991
2 40025  98.0996 123.2402 0010241  53.8253 306.3925 15.17410648645079
QB50P2                  
1 40032U 14033Y   26115.78348166  .00007925  00000+0  43451-3 0  9990
2 40032  98.0757 109.4339 0007530   8.6939 351.4420 15.14459140644733
PERSEUS-M2              
1 40037U 14033AD  26115.47049987  .00001636  00000+0  15367-3 0  9998
2 40037  97.9924  64.9575 0013312 111.3086 248.9556 14.95337717642909
PERSEUS-M1              
1 40039U 14033AF  26115.38059999  .00002000  00000+0  18603-3 0  9996
2 40039  97.9609  58.6650 0013078 110.3040 249.9587 14.95447236642748
POLYITAN-1              
1 40042U 14033AJ  26115.02660209  .00015579  00000+0  51583-3 0  9992
2 40042  98.0998 136.3299 0006299 348.6156  11.4939 15.31401354645455
TIGRISAT                
1 40043U 14033AK  26115.35760770  .00002011  00000+0  23781-3 0  9999
2 40043  97.7763 266.6080 0048195 247.2562 112.3555 14.84931080637786
AEROCUBE 6A             
1 40045U 14033AM  26115.44700706  .00007151  00000+0  60935-3 0  9996
2 40045  97.7191 282.9947 0038878 190.8976 169.1408 14.97474332638723
