[{"OBJECT_NAME":"WNISAT-1","OBJECT_ID":"2013-066H","EPOCH":"2026-04-25T20:22:51.508992","MEAN_MOTION":14.57998402,"ECCENTRICITY":0.0164008,"INCLINATION":97.7133,"RA_OF_ASC_NODE":268.7418,"ARG_OF_PERICENTER":37.2017,"MEAN_ANOMALY":324.0414,"EPHEMERIS_TYPE":0,"CLASSIFICATION_TYPE":"U","NORAD_CAT_ID":39423,"ELEMENT_SET_NO":999,"REV_AT_EPOCH":65910,"BSTAR":0.00013122,"MEAN_MOTION_DOT":6.77e-6,"MEAN_MOTION_DDOT":0},{"OBJECT_NAME":"TRITON-1","OBJECT_ID":"2013-066M","EPOCH":"2026-04-25T19:40:55.879680","MEAN_MOTION":14.81443802,"ECCENTRICITY":0.0091555,"INCLINATION":97.8267,"RA_OF_ASC_NODE":26.822,"ARG_OF_PERICENTER":45.6986,"MEAN_ANOMALY":315.1689,"EPHEMERIS_TYPE":0,"CLASSIFICATION_TYPE":"U","NORAD_CAT_ID":39427,"ELEMENT_SET_NO":999,"REV_AT_EPOCH":66633,"BSTAR":0.00040835,"MEAN_MOTION_DOT":3.381e-5,"MEAN_MOTION_DDOT":0},{"OBJECT_NAME":"GOMX-1","OBJECT_ID":"2013-066Q","EPOCH":"2026-04-25T19:37:30.734112","MEAN_MOTION":14.69258291,"ECCENTRICITY":0.012755,"INCLINATION":97.6529,"RA_OF_ASC_NODE":319.578,"ARG_OF_PERICENTER":245.5389,"MEAN_ANOMALY":113.247,"EPHEMERIS_TYPE":0,"CLASSIFICATION_TYPE":"U","NORAD_CAT_ID":39430,"ELEMENT_SET_NO":999,"REV_AT_EPOCH":66222,"BSTAR":0.00021358,"MEAN_MOTION_DOT":1.373e-5,"MEAN_MOTION_DDOT":0},{"OBJECT_NAME":"CUBEBUG-2 (LO-74)","OBJECT_ID":"2013-066AA","EPOCH":"2026-04-25T19:21:22.290336","MEAN_MOTION":14.93386841,"ECCENTRICITY":0.0057328,"INCLINATION":97.8871,"RA_OF_ASC_NODE":64.5922,"ARG_OF_PERICENTER":199.505,"MEAN_ANOMALY":160.3976,"EPHEMERIS_TYPE":0,"CLASSIFICATION_TYPE":"U","NORAD_CAT_ID":39440,"ELEMENT_SET_NO":999,"REV_AT_EPOCH":66917,"BSTAR":0.00035043,"MEAN_MOTION_DOT":3.736e-5,"MEAN_MOTION_DDOT":0},{"OBJECT_NAME":"NEE-02 KRYSAOR","OBJECT_ID":"2013-066AB","EPOCH":"2026-04-25T18:32:12.677280","MEAN_MOTION":14.86426759,"ECCENTRICITY":0.0064892,"INCLINATION":97.8866,"RA_OF_ASC_NODE":55.3782,"ARG_OF_PERICENTER":241.0668,"MEAN_ANOMALY":118.403,"EPHEMERIS_TYPE":0,"CLASSIFICATION_TYPE":"U","NORAD_CAT_ID":39441,"ELEMENT_SET_NO":999,"REV_AT_EPOCH":66841,"BSTAR":0.0001745,"MEAN_MOTION_DOT":1.541e-5,"MEAN_MOTION_DDOT":0},{"OBJECT_NAME":"FUNCUBE-1 (AO-73)","OBJECT_ID":"2013-066AE","EPOCH":"2026-04-25T19:24:09.918432","MEAN_MOTION":15.08732699,"ECCENTRICITY":0.0037585,"INCLINATION":97.8237,"RA_OF_ASC_NODE":86.2005,"ARG_OF_PERICENTER":24.7149,"MEAN_ANOMALY":335.5869,"EPHEMERIS_TYPE":0,"CLASSIFICATION_TYPE":"U","NORAD_CAT_ID":39444,"ELEMENT_SET_NO":999,"REV_AT_EPOCH":67176,"BSTAR":0.00068138,"MEAN_MOTION_DOT":0.00010811,"MEAN_MOTION_DDOT":0},{"OBJECT_NAME":"UWE-3","OBJECT_ID":"2013-066AG","EPOCH":"2026-04-25T19:19:01.426368","MEAN_MOTION":14.96583512,"ECCENTRICITY":0.0050421,"INCLINATION":97.8653,"RA_OF_ASC_NODE":71.5585,"ARG_OF_PERICENTER":133.2329,"MEAN_ANOMALY":227.3118,"EPHEMERIS_TYPE":0,"CLASSIFICATION_TYPE":"U","NORAD_CAT_ID":39446,"ELEMENT_SET_NO":999,"REV_AT_EPOCH":66974,"BSTAR":0.00031656,"MEAN_MOTION_DOT":3.635e-5,"MEAN_MOTION_DDOT":0},{"OBJECT_NAME":"BRITE-CA1 (TORONTO)","OBJECT_ID":"2014-033L","EPOCH":"2026-04-25T14:00:17.187264","MEAN_MOTION":14.72595446,"ECCENTRICITY":0.0080064,"INCLINATION":97.9656,"RA_OF_ASC_NODE":245.5081,"ARG_OF_PERICENTER":85.5228,"MEAN_ANOMALY":275.5121,"EPHEMERIS_TYPE":0,"CLASSIFICATION_TYPE":"U","NORAD_CAT_ID":40020,"ELEMENT_SET_NO":999,"REV_AT_EPOCH":63447,"BSTAR":0.00014187,"MEAN_MOTION_DOT":8.97e-6,"MEAN_MOTION_DDOT":0},{"OBJECT_NAME":"DUCHIFAT-1","OBJECT_ID":"2014-033M","EPOCH":"2026-04-25T16:10:40.044576","MEAN_MOTION":15.55855059,"ECCENTRICITY":0.0004049,"INCLINATION":98.0542,"RA_OF_ASC_NODE":167.8552,"ARG_OF_PERICENTER":235.8806,"MEAN_ANOMALY":124.2063,"EPHEMERIS_TYPE":0,"CLASSIFICATION_TYPE":"U","NORAD_CAT_ID":40021,"ELEMENT_SET_NO":999,"REV_AT_EPOCH":64756,"BSTAR":0.00094543,"MEAN_MOTION_DOT":0.00065753,"MEAN_MOTION_DDOT":0},{"OBJECT_NAME":"NANOSATC-BR1","OBJECT_ID":"2014-033Q","EPOCH":"2026-04-25T13:52:24.887712","MEAN_MOTION":15.29765088,"ECCENTRICITY":0.0003806,"INCLINATION":98.0779,"RA_OF_ASC_NODE":143.3656,"ARG_OF_PERICENTER":37.3997,"MEAN_ANOMALY":322.7506,"EPHEMERIS_TYPE":0,"CLASSIFICATION_TYPE":"U","NORAD_CAT_ID":40024,"ELEMENT_SET_NO":999,"REV_AT_EPOCH":64593,"BSTAR":0.00056375,"MEAN_MOTION_DOT":0.00016189,"MEAN_MOTION_DDOT":0},{"OBJECT_NAME":"QB50P1","OBJECT_ID":"2014-033R","EPOCH":"2026-04-25T17:45:39.182112","MEAN_MOTION":15.17410648,"ECCENTRICITY":0.0010241,"INCLINATION":98.0996,"RA_OF_ASC_NODE":123.2402,"ARG_OF_PERICENTER":53.8253,"MEAN_ANOMALY":306.3925,"EPHEMERIS_TYPE":0,"CLASSIFICATION_TYPE":"U","NORAD_CAT_ID":40025,"ELEMENT_SET_NO":999,"REV_AT_EPOCH":64507,"BSTAR":0.0004424,"MEAN_MOTION_DOT":8.784e-5,"MEAN_MOTION_DDOT":0},{"OBJECT_NAME":"QB50P2","OBJECT_ID":"2014-033Y","EPOCH":"2026-04-25T18:48:12.815424","MEAN_MOTION":15.1445914,"ECCENTRICITY":0.000753,"INCLINATION":98.0757,"RA_OF_ASC_NODE":109.4339,"ARG_OF_PERICENTER":8.6939,"MEAN_ANOMALY":351.442,"EPHEMERIS_TYPE":0,"CLASSIFICATION_TYPE":"U","NORAD_CAT_ID":40032,"ELEMENT_SET_NO":999,"REV_AT_EPOCH":64473,"BSTAR":0.00043451,"MEAN_MOTION_DOT":7.925e-5,"MEAN_MOTION_DDOT":0},{"OBJECT_NAME":"PERSEUS-M2","OBJECT_ID":"2014-033AD","EPOCH":"2026-04-25T11:17:31.188768","MEAN_MOTION":14.95337717,"ECCENTRICITY":0.0013312,"INCLINATION":97.9924,"RA_OF_ASC_NODE":64.9575,"ARG_OF_PERICENTER":111.3086,"MEAN_ANOMALY":248.9556,"EPHEMERIS_TYPE":0,"CLASSIFICATION_TYPE":"U","NORAD_CAT_ID":40037,"ELEMENT_SET_NO":999,"REV_AT_EPOCH":64290,"BSTAR":0.00015367,"MEAN_MOTION_DOT":1.636e-5,"MEAN_MOTION_DDOT":0},{"OBJECT_NAME":"PERSEUS-M1","OBJECT_ID":"2014-033AF","EPOCH":"2026-04-25T09:08:03.839136","MEAN_MOTION":14.95447236,"ECCENTRICITY":0.0013078,"INCLINATION":97.9609,"RA_OF_ASC_NODE":58.665,"ARG_OF_PERICENTER":110.304,"MEAN_ANOMALY":249.9587,"EPHEMERIS_TYPE":0,"CLASSIFICATION_TYPE":"U","NORAD_CAT_ID":40039,"ELEMENT_SET_NO":999,"REV_AT_EPOCH":64274,"BSTAR":0.00018603,"MEAN_MOTION_DOT":2.0e-5,"MEAN_MOTION_DDOT":0},{"OBJECT_NAME":"POLYITAN-1","OBJECT_ID":"2014-033AJ","EPOCH":"2026-04-25T00:38:18.420576","MEAN_MOTION":15.31401354,"ECCENTRICITY":0.00062991,"INCLINATION":98.0998,"RA_OF_ASC_NODE":136.3299,"ARG_OF_PERICENTER":348.6156,"MEAN_ANOMALY":11.4939,"EPHEMERIS_TYPE":0,"CLASSIFICATION_TYPE":"U","NORAD_CAT_ID":40042,"ELEMENT_SET_NO":999,"REV_AT_EPOCH":64545,"BSTAR":0.00051582964,"MEAN_MOTION_DOT":0.00015579,"MEAN_MOTION_DDOT":0},{"OBJECT_NAME":"TIGRISAT","OBJECT_ID":"2014-033AK","EPOCH":"2026-04-25T08:34:57.305280","MEAN_MOTION":14.8493108,"ECCENTRICITY":0.0048195,"INCLINATION":97.7763,"RA_OF_ASC_NODE":266.608,"ARG_OF_PERICENTER":247.2562,"MEAN_ANOMALY":112.3555,"EPHEMERIS_TYPE":0,"CLASSIFICATION_TYPE":"U","NORAD_CAT_ID":40043,"ELEMENT_SET_NO":999,"REV_AT_EPOCH":63778,"BSTAR":0.00023781,"MEAN_MOTION_DOT":2.011e-5,"MEAN_MOTION_DDOT":0},{"OBJECT_NAME":"AEROCUBE 6A","OBJECT_ID":"2014-033AM","EPOCH":"2026-04-25T10:43:41.409984","MEAN_MOTION":14.97474332,"ECCENTRICITY":0.0038878,"INCLINATION":97.7191,"RA_OF_ASC_NODE":282.9947,"ARG_OF_PERICENTER":190.8976,"MEAN_ANOMALY":169.1408,"EPHEMERIS_TYPE":0,"CLASSIFICATION_TYPE":"U","NORAD_CAT_ID":40045,"ELEMENT_SET_NO":999,"REV_AT_EPOCH":63872,"BSTAR":0.00060935,"MEAN_MOTION_DOT":7.151e-5,"MEAN_MOTION_DDOT":0}]
